GLOBALSTAR M068         
1 32266U 07048D   24209.31073421 -.00000078  00000+0  14570-3 0  9991
2 32266  51.9855 212.5671 0000939 143.3462 235.5274 12.62795083776519
GLOBALSTAR M079         
1 37188U 10054A   24209.31009818 -.00000093  00000+0  58985-4 0  9995
2 37188  52.0048  48.7634 0000655  64.2341 111.6728 12.62261998635428
GLOBALSTAR M074         
1 37189U 10054B   24209.09355649 -.00000101  00000+0  14452-4 0  9998
2 37189  52.0025  48.7962 0000860  77.5387  73.3855 12.62270717636002
GLOBALSTAR M076         
1 37190U 10054C   24209.28474186 -.00000091  00000+0  72008-4 0  9998
2 37190  52.0036  48.3564 0000994  54.2223 125.5947 12.62254154635748
GLOBALSTAR M077         
1 37191U 10054D   24209.19039506 -.00000089  00000+0  81231-4 0  9997
2 37191  52.0090   5.4050 0000886  95.3833  75.9645 12.62261571636101
GLOBALSTAR M075         
1 37192U 10054E   24209.45445163 -.00000091  00000+0  71687-4 0  9994
2 37192  51.9950  90.2774 0000638  60.3817 111.3018 12.62262126635362
GLOBALSTAR M073         
1 37193U 10054F   24209.50550072 -.00000100  00000+0  18508-4 0  9991
2 37193  52.0083   3.6940 0000840  85.4888 317.3057 12.62267305636889
GLOBALSTAR M083         
1 37739U 11033A   24209.44660674 -.00000087  00000+0  94675-4 0  9991
2 37739  51.9876 313.0483 0000536 131.9904 304.6481 12.62262742606204
GLOBALSTAR M088         
1 37740U 11033B   24209.26330838 -.00000097  00000+0  35171-4 0  9996
2 37740  51.9704 219.3699 0000152 214.7076 228.8466 12.62265619601365
GLOBALSTAR M091         
1 37741U 11033C   24209.18234005 -.00000088  00000+0  89111-4 0  9990
2 37741  51.9973 182.5912 0000187 265.4261 108.4292 12.62264997602145
GLOBALSTAR M085         
1 37742U 11033D   24209.03645421 -.00000076  00000+0  15385-3 0  9991
2 37742  51.9863 134.3598 0000264  23.1494 108.8861 12.62263704602637
GLOBALSTAR M081         
1 37743U 11033E   24209.54710080 -.00000088  00000+0  86023-4 0  9993
2 37743  51.9952 135.3923 0000471   2.9840 170.0395 12.62267136603222
GLOBALSTAR M089         
1 37744U 11033F   24208.76633435 -.00000079  00000+0  13959-3 0  9992
2 37744  51.9931  92.0613 0000984  48.6890 353.1882 12.62266392603594
GLOBALSTAR M084         
1 38040U 11080A   24208.80707213 -.00000078  00000+0  14285-3 0  9997
2 38040  52.0025 319.0513 0000899  97.7136  70.6301 12.62264655581574
GLOBALSTAR M080         
1 38041U 11080B   24208.85554757 -.00000085  00000+0  10323-3 0  9993
2 38041  52.0080 320.3959 0000827  80.3743  68.6195 12.62263127581704
GLOBALSTAR M082         
1 38042U 11080C   24209.47348317 -.00000085  00000+0  10499-3 0  9990
2 38042  52.0071 273.9284 0000832 167.6627 210.6161 12.62264363582666
GLOBALSTAR M092         
1 38043U 11080D   24209.16409907 -.00000082  00000+0  12011-3 0  9999
2 38043  52.0105   5.2259 0000944  95.9086  76.0052 12.62264234580904
GLOBALSTAR M090         
1 38044U 11080E   24208.90010801 -.00000087  00000+0  93713-4 0  9996
2 38044  51.9880 269.9017 0000546 159.9023  11.2108 12.62265316582574
GLOBALSTAR M086         
1 38045U 11080F   24209.44572937 -.00000089  00000+0  84943-4 0  9997
2 38045  51.9888 268.7648 0000483 323.0223  49.4636 12.62264836582650
GLOBALSTAR M097         
1 39072U 13005A   24209.23238849 -.00000094  00000+0  53988-4 0  9996
2 39072  52.0023 183.6314 0000197 311.5324  48.5526 12.62269148529778
GLOBALSTAR M093         
1 39073U 13005B   24209.20546863 -.00000087  00000+0  93112-4 0  9997
2 39073  51.9788 177.5329 0000319 304.1052  55.9784 12.62276239529727
GLOBALSTAR M094         
1 39074U 13005C   24209.20549076 -.00000068  00000+0  19823-3 0  9992
2 39074  51.9961  91.5905 0000490  38.8685 321.2217 12.62266280531334
GLOBALSTAR M096         
1 39075U 13005D   24209.13957896 -.00000077  00000+0  15028-3 0  9991
2 39075  52.0065 140.0520 0000263 348.2877  11.7984 12.62267855530244
GLOBALSTAR M078         
1 39076U 13005E   24209.19242632 -.00000109  00000+0 -27318-4 0  9996
2 39076  51.9844 224.8449 0001079 168.9120 191.1771 12.62273418528878
GLOBALSTAR M095         
1 39077U 13005F   24209.37695365 -.00000099  00000+0  27015-4 0  9993
2 39077  51.9770 221.6390 0000663 207.4267 152.6564 12.62262717529116
GLOBALSTAR M087         
1 52888U 22064A   24209.08545393 -.00000090  00000+0  73726-4 0  9997
2 52888  51.9763  69.2576 0010083 103.5575 256.6449 13.37579530102863
